[{"OBJECT_NAME":"ONEWEB-0161","OBJECT_ID":"2021-025M","EPOCH":"2025-11-25T02:08:24.117792","MEAN_MOTION":13.13468716,"ECCENTRICITY":0.000168,"INCLINATION":87.8994,"RA_OF_ASC_NODE":0.7928,"ARG_OF_PERICENTER":89.0866,"MEAN_ANOMALY":271.0456,"EPHEMERIS_TYPE":0,"CLASSIFICATION_TYPE":"U","NORAD_CAT_ID":48053,"ELEMENT_SET_NO":999,"REV_AT_EPOCH":22671,"BSTAR":0.00087428,"MEAN_MOTION_DOT":3.32e-6,"MEAN_MOTION_DDOT":0},{"OBJECT_NAME":"ONEWEB-0158","OBJECT_ID":"2021-025N","EPOCH":"2025-11-25T02:59:35.223936","MEAN_MOTION":13.1346942,"ECCENTRICITY":0.0002143,"INCLINATION":87.9,"RA_OF_ASC_NODE":0.7692,"ARG_OF_PERICENTER":99.1741,"MEAN_ANOMALY":260.9631,"EPHEMERIS_TYPE":0,"CLASSIFICATION_TYPE":"U","NORAD_CAT_ID":48054,"ELEMENT_SET_NO":999,"REV_AT_EPOCH":22684,"BSTAR":-0.00067105,"MEAN_MOTION_DOT":-2.32e-6,"MEAN_MOTION_DDOT":0},{"OBJECT_NAME":"ONEWEB-0157","OBJECT_ID":"2021-025P","EPOCH":"2025-11-25T01:46:27.844032","MEAN_MOTION":13.13469249,"ECCENTRICITY":0.0001684,"INCLINATION":87.8999,"RA_OF_ASC_NODE":0.7853,"ARG_OF_PERICENTER":82.7678,"MEAN_ANOMALY":277.3643,"EPHEMERIS_TYPE":0,"CLASSIFICATION_TYPE":"U","NORAD_CAT_ID":48055,"ELEMENT_SET_NO":999,"REV_AT_EPOCH":22677,"BSTAR":0.00081194,"MEAN_MOTION_DOT":3.09e-6,"MEAN_MOTION_DDOT":0},{"OBJECT_NAME":"ONEWEB-0162","OBJECT_ID":"2021-025Q","EPOCH":"2025-11-25T03:01:50.160000","MEAN_MOTION":13.13471118,"ECCENTRICITY":0.0001644,"INCLINATION":87.9001,"RA_OF_ASC_NODE":0.7768,"ARG_OF_PERICENTER":96.2982,"MEAN_ANOMALY":263.8334,"EPHEMERIS_TYPE":0,"CLASSIFICATION_TYPE":"U","NORAD_CAT_ID":48056,"ELEMENT_SET_NO":999,"REV_AT_EPOCH":22675,"BSTAR":-0.00068524,"MEAN_MOTION_DOT":-2.37e-6,"MEAN_MOTION_DDOT":0},{"OBJECT_NAME":"ONEWEB-0155","OBJECT_ID":"2021-025R","EPOCH":"2025-11-25T01:22:05.365056","MEAN_MOTION":13.13471629,"ECCENTRICITY":0.0001925,"INCLINATION":87.8996,"RA_OF_ASC_NODE":0.7953,"ARG_OF_PERICENTER":90.1912,"MEAN_ANOMALY":269.9438,"EPHEMERIS_TYPE":0,"CLASSIFICATION_TYPE":"U","NORAD_CAT_ID":48057,"ELEMENT_SET_NO":999,"REV_AT_EPOCH":22688,"BSTAR":-0.00035428,"MEAN_MOTION_DOT":-1.17e-6,"MEAN_MOTION_DDOT":0},{"OBJECT_NAME":"ONEWEB-0149","OBJECT_ID":"2021-025S","EPOCH":"2025-11-25T01:53:46.887360","MEAN_MOTION":13.13470435,"ECCENTRICITY":0.00016,"INCLINATION":87.8997,"RA_OF_ASC_NODE":0.7852,"ARG_OF_PERICENTER":98.4872,"MEAN_ANOMALY":261.6439,"EPHEMERIS_TYPE":0,"CLASSIFICATION_TYPE":"U","NORAD_CAT_ID":48058,"ELEMENT_SET_NO":999,"REV_AT_EPOCH":22669,"BSTAR":0.00098413,"MEAN_MOTION_DOT":3.72e-6,"MEAN_MOTION_DDOT":0},{"OBJECT_NAME":"ONEWEB-0148","OBJECT_ID":"2021-025T","EPOCH":"2025-11-25T02:49:50.227680","MEAN_MOTION":13.13469534,"ECCENTRICITY":0.0001216,"INCLINATION":87.8992,"RA_OF_ASC_NODE":0.798,"ARG_OF_PERICENTER":98.6243,"MEAN_ANOMALY":261.5024,"EPHEMERIS_TYPE":0,"CLASSIFICATION_TYPE":"U","NORAD_CAT_ID":48059,"ELEMENT_SET_NO":999,"REV_AT_EPOCH":22682,"BSTAR":-0.00067105,"MEAN_MOTION_DOT":-2.32e-6,"MEAN_MOTION_DDOT":0},{"OBJECT_NAME":"ONEWEB-0160","OBJECT_ID":"2021-025U","EPOCH":"2025-11-25T01:24:31.718016","MEAN_MOTION":13.13470286,"ECCENTRICITY":0.000239,"INCLINATION":87.8991,"RA_OF_ASC_NODE":0.8073,"ARG_OF_PERICENTER":111.4346,"MEAN_ANOMALY":248.7038,"EPHEMERIS_TYPE":0,"CLASSIFICATION_TYPE":"U","NORAD_CAT_ID":48060,"ELEMENT_SET_NO":999,"REV_AT_EPOCH":22676,"BSTAR":-0.0003151,"MEAN_MOTION_DOT":-1.02e-6,"MEAN_MOTION_DDOT":0},{"OBJECT_NAME":"ONEWEB-0163","OBJECT_ID":"2021-025V","EPOCH":"2025-11-25T02:52:16.817376","MEAN_MOTION":13.13469858,"ECCENTRICITY":0.0001772,"INCLINATION":87.8999,"RA_OF_ASC_NODE":0.7803,"ARG_OF_PERICENTER":85.8583,"MEAN_ANOMALY":274.2748,"EPHEMERIS_TYPE":0,"CLASSIFICATION_TYPE":"U","NORAD_CAT_ID":48061,"ELEMENT_SET_NO":999,"REV_AT_EPOCH":22689,"BSTAR":-0.00076804,"MEAN_MOTION_DOT":-2.68e-6,"MEAN_MOTION_DDOT":0},{"OBJECT_NAME":"ONEWEB-0159","OBJECT_ID":"2021-025W","EPOCH":"2025-11-25T02:40:05.760192","MEAN_MOTION":13.13469868,"ECCENTRICITY":0.0001633,"INCLINATION":87.9002,"RA_OF_ASC_NODE":0.7654,"ARG_OF_PERICENTER":88.7212,"MEAN_ANOMALY":271.4104,"EPHEMERIS_TYPE":0,"CLASSIFICATION_TYPE":"U","NORAD_CAT_ID":48062,"ELEMENT_SET_NO":999,"REV_AT_EPOCH":22681,"BSTAR":-0.00038442,"MEAN_MOTION_DOT":-1.28e-6,"MEAN_MOTION_DDOT":0},{"OBJECT_NAME":"ONEWEB-0164","OBJECT_ID":"2021-025X","EPOCH":"2025-11-25T02:13:16.828032","MEAN_MOTION":13.13469942,"ECCENTRICITY":0.0001878,"INCLINATION":87.9001,"RA_OF_ASC_NODE":0.7765,"ARG_OF_PERICENTER":95.7544,"MEAN_ANOMALY":264.3799,"EPHEMERIS_TYPE":0,"CLASSIFICATION_TYPE":"U","NORAD_CAT_ID":48063,"ELEMENT_SET_NO":999,"REV_AT_EPOCH":22679,"BSTAR":0.00052558,"MEAN_MOTION_DOT":2.05e-6,"MEAN_MOTION_DDOT":0},{"OBJECT_NAME":"ONEWEB-0167","OBJECT_ID":"2021-025Y","EPOCH":"2025-11-25T02:53:28.989024","MEAN_MOTION":13.13469605,"ECCENTRICITY":0.0002272,"INCLINATION":87.899,"RA_OF_ASC_NODE":0.7999,"ARG_OF_PERICENTER":79.0051,"MEAN_ANOMALY":281.1334,"EPHEMERIS_TYPE":0,"CLASSIFICATION_TYPE":"U","NORAD_CAT_ID":48064,"ELEMENT_SET_NO":999,"REV_AT_EPOCH":22678,"BSTAR":-0.001336,"MEAN_MOTION_DOT":-4.75e-6,"MEAN_MOTION_DDOT":0},{"OBJECT_NAME":"ONEWEB-0166","OBJECT_ID":"2021-025Z","EPOCH":"2025-11-25T01:36:43.155360","MEAN_MOTION":13.13470549,"ECCENTRICITY":0.000163,"INCLINATION":87.8996,"RA_OF_ASC_NODE":0.7653,"ARG_OF_PERICENTER":95.0811,"MEAN_ANOMALY":265.0504,"EPHEMERIS_TYPE":0,"CLASSIFICATION_TYPE":"U","NORAD_CAT_ID":48065,"ELEMENT_SET_NO":999,"REV_AT_EPOCH":22685,"BSTAR":0.00029878,"MEAN_MOTION_DOT":1.22e-6,"MEAN_MOTION_DDOT":0},{"OBJECT_NAME":"ONEWEB-0151","OBJECT_ID":"2021-025AA","EPOCH":"2025-11-25T01:39:09.420192","MEAN_MOTION":13.13470796,"ECCENTRICITY":0.0001941,"INCLINATION":87.9001,"RA_OF_ASC_NODE":0.7908,"ARG_OF_PERICENTER":92.8302,"MEAN_ANOMALY":267.3049,"EPHEMERIS_TYPE":0,"CLASSIFICATION_TYPE":"U","NORAD_CAT_ID":48066,"ELEMENT_SET_NO":999,"REV_AT_EPOCH":22679,"BSTAR":0.00057266,"MEAN_MOTION_DOT":2.22e-6,"MEAN_MOTION_DDOT":0},{"OBJECT_NAME":"ONEWEB-0170","OBJECT_ID":"2021-025AB","EPOCH":"2025-11-25T01:51:21.305088","MEAN_MOTION":13.13470331,"ECCENTRICITY":0.0002282,"INCLINATION":87.8995,"RA_OF_ASC_NODE":0.7953,"ARG_OF_PERICENTER":97.0716,"MEAN_ANOMALY":263.0673,"EPHEMERIS_TYPE":0,"CLASSIFICATION_TYPE":"U","NORAD_CAT_ID":48067,"ELEMENT_SET_NO":999,"REV_AT_EPOCH":22675,"BSTAR":0.00089725,"MEAN_MOTION_DOT":3.4e-6,"MEAN_MOTION_DDOT":0},{"OBJECT_NAME":"ONEWEB-0168","OBJECT_ID":"2021-025AC","EPOCH":"2025-11-25T01:29:24.340128","MEAN_MOTION":13.13470364,"ECCENTRICITY":0.0001725,"INCLINATION":87.9001,"RA_OF_ASC_NODE":0.782,"ARG_OF_PERICENTER":89.5253,"MEAN_ANOMALY":270.6073,"EPHEMERIS_TYPE":0,"CLASSIFICATION_TYPE":"U","NORAD_CAT_ID":48068,"ELEMENT_SET_NO":999,"REV_AT_EPOCH":22676,"BSTAR":-0.00013994,"MEAN_MOTION_DOT":-3.8e-7,"MEAN_MOTION_DDOT":0},{"OBJECT_NAME":"ONEWEB-0173","OBJECT_ID":"2021-025AD","EPOCH":"2025-11-25T03:06:54.528192","MEAN_MOTION":13.13470341,"ECCENTRICITY":0.0001867,"INCLINATION":87.9,"RA_OF_ASC_NODE":0.7762,"ARG_OF_PERICENTER":82.0147,"MEAN_ANOMALY":278.1194,"EPHEMERIS_TYPE":0,"CLASSIFICATION_TYPE":"U","NORAD_CAT_ID":48069,"ELEMENT_SET_NO":999,"REV_AT_EPOCH":22701,"BSTAR":-0.00041084,"MEAN_MOTION_DOT":-1.37e-6,"MEAN_MOTION_DDOT":0}]
