ONEWEB-0161             
1 48053U 21025M   25329.08916803  .00000332  00000+0  87428-3 0  9995
2 48053  87.8994   0.7928 0001680  89.0866 271.0456 13.13468716226718
ONEWEB-0158             
1 48054U 21025N   25329.12471324 -.00000232  00000+0 -67105-3 0  9996
2 48054  87.9000   0.7692 0002143  99.1741 260.9631 13.13469420226844
ONEWEB-0157             
1 48055U 21025P   25329.07393338  .00000309  00000+0  81194-3 0  9996
2 48055  87.8999   0.7853 0001684  82.7678 277.3643 13.13469249226772
ONEWEB-0162             
1 48056U 21025Q   25329.12627500 -.00000237  00000+0 -68524-3 0  9998
2 48056  87.9001   0.7768 0001644  96.2982 263.8334 13.13471118226750
ONEWEB-0155             
1 48057U 21025R   25329.05700654 -.00000117  00000+0 -35428-3 0  9997
2 48057  87.8996   0.7953 0001925  90.1912 269.9438 13.13471629226880
ONEWEB-0149             
1 48058U 21025S   25329.07901490  .00000372  00000+0  98413-3 0  9995
2 48058  87.8997   0.7852 0001600  98.4872 261.6439 13.13470435226699
ONEWEB-0148             
1 48059U 21025T   25329.11794245 -.00000232  00000+0 -67105-3 0  9990
2 48059  87.8992   0.7980 0001216  98.6243 261.5024 13.13469534226826
ONEWEB-0160             
1 48060U 21025U   25329.05870044 -.00000102  00000+0 -31510-3 0  9994
2 48060  87.8991   0.8073 0002390 111.4346 248.7038 13.13470286226764
ONEWEB-0163             
1 48061U 21025V   25329.11963909 -.00000268  00000+0 -76804-3 0  9993
2 48061  87.8999   0.7803 0001772  85.8583 274.2748 13.13469858226892
ONEWEB-0159             
1 48062U 21025W   25329.11117778 -.00000128  00000+0 -38442-3 0  9990
2 48062  87.9002   0.7654 0001633  88.7212 271.4104 13.13469868226818
ONEWEB-0164             
1 48063U 21025X   25329.09255588  .00000205  00000+0  52558-3 0  9998
2 48063  87.9001   0.7765 0001878  95.7544 264.3799 13.13469942226799
ONEWEB-0167             
1 48064U 21025Y   25329.12047441 -.00000475  00000+0 -13360-2 0  9998
2 48064  87.8990   0.7999 0002272  79.0051 281.1334 13.13469605226789
ONEWEB-0166             
1 48065U 21025Z   25329.06716615  .00000122  00000+0  29878-3 0  9997
2 48065  87.8996   0.7653 0001630  95.0811 265.0504 13.13470549226859
ONEWEB-0151             
1 48066U 21025AA  25329.06885903  .00000222  00000+0  57266-3 0  9998
2 48066  87.9001   0.7908 0001941  92.8302 267.3049 13.13470796226792
ONEWEB-0170             
1 48067U 21025AB  25329.07732992  .00000340  00000+0  89725-3 0  9995
2 48067  87.8995   0.7953 0002282  97.0716 263.0673 13.13470331226756
ONEWEB-0168             
1 48068U 21025AC  25329.06208727 -.00000038  00000+0 -13994-3 0  9990
2 48068  87.9001   0.7820 0001725  89.5253 270.6073 13.13470364226767
ONEWEB-0173             
1 48069U 21025AD  25329.12979778 -.00000137  00000+0 -41084-3 0  9990
2 48069  87.9000   0.7762 0001867  82.0147 278.1194 13.13470341227010
